H1 CPF 01  gfz 2021 09 07 12  7502 tandemx   
H2 1003001  6202 36605    2021 09 07 00 59 42 2021 09 12 00 00 42   120 1 1  0 0 0
H9
10 0 59465  33102.000000  0   -4648895.623   5084876.731      5835.405
10 0 59465  33222.000000  0   -4474834.092   5157725.328    908403.115
10 0 59465  33342.000000  0   -4222095.095   5136676.333   1794975.669
10 0 59465  33462.000000  0   -3896733.595   5020755.151   2649937.623
10 0 59465  33582.000000  0   -3506090.138   4810779.030   3458232.910
10 0 59465  33702.000000  0   -3058626.371   4509360.973   4205635.737
10 0 59465  33822.000000  0   -2563741.146   4120877.955   4879004.847
10 0 59465  33942.000000  0   -2031570.379   3651403.306   5466515.931
10 0 59465  34062.000000  0   -1472776.411   3108605.360   5957867.443
10 0 59465  34182.000000  0    -898331.518   2501615.478   6344456.573
10 0 59465  34302.000000  0    -319301.364   1840868.463   6619522.692
10 0 59465  34422.000000  0     253367.381   1137920.343   6778259.869
10 0 59465  34542.000000  0     809053.881    405243.993   6817895.760
10 0 59465  34662.000000  0    1337659.077   -343991.711   6737736.446
10 0 59465  34782.000000  0    1829788.353  -1096157.832   6539178.855
10 0 59465  34902.000000  0    2276918.358  -1837412.708   6225688.014
10 0 59465  35022.000000  0    2671545.727  -2553956.437   5802741.532
10 0 59465  35142.000000  0    3007315.554  -3232289.282   5277739.209
10 0 59465  35262.000000  0    3279126.092  -3859468.763   4659879.276
10 0 59465  35382.000000  0    3483209.145  -4423361.026   3960002.973
10 0 59465  35502.000000  0    3617184.053  -4912882.050   3190407.434
10 0 59465  35622.000000  0    3680082.930  -5318221.874   2364630.335
10 0 59465  35742.000000  0    3672347.232  -5631047.528   1497209.602
10 0 59465  35862.000000  0    3595794.954  -5844678.891    603422.373
10 0 59465  35982.000000  0    3453559.335  -5954231.993   -300990.475
10 0 59465  36102.000000  0    3250001.924  -5956729.297  -1200109.828
10 0 59465  36222.000000  0    2990598.372  -5851169.763  -2078128.572
10 0 59465  36342.000000  0    2681803.259  -5638559.424  -2919636.309
10 0 59465  36462.000000  0    2330896.770  -5321901.519  -3709896.053
10 0 59465  36582.000000  0    1945816.374  -4906145.900  -4435104.848
10 0 59465  36702.000000  0    1534978.831  -4398100.550  -5082631.788
10 0 59465  36822.000000  0    1107098.918  -3806309.430  -5641231.385
10 0 59465  36942.000000  0     671007.261  -3140899.515  -6101229.929
10 0 59465  37062.000000  0     235470.719  -2413400.693  -6454681.895
10 0 59465  37182.000000  0    -190980.350  -1636542.257  -6695495.804
10 0 59465  37302.000000  0    -600214.674   -824029.800  -6819528.960
10 0 59465  37422.000000  0    -984650.206      9694.053  -6824651.079
10 0 59465  37542.000000  0   -1337390.864    849700.969  -6710775.763
10 0 59465  37662.000000  0   -1652347.335   1680837.102  -6479861.528
10 0 59465  37782.000000  0   -1924339.688   2487989.500  -6135881.550
10 0 59465  37902.000000  0   -2149182.127   3256355.399  -5684764.145
10 0 59465  38022.000000  0   -2323747.722   3971711.516  -5134300.710
10 0 59465  38142.000000  0   -2446012.400   4620678.383  -4494023.136
10 0 59465  38262.000000  0   -2515077.267   5190975.458  -3775048.941
10 0 59465  38382.000000  0   -2531167.453   5671659.670  -2989896.270
10 0 59465  38502.000000  0   -2495607.637   6053343.875  -2152273.553
10 0 59465  38622.000000  0   -2410775.107   6328391.555  -1276843.235
10 0 59465  38742.000000  0   -2280030.301   6491078.240   -378963.619
10 0 59465  38862.000000  0   -2107627.150   6537719.054    525582.832
10 0 59465  38982.000000  0   -1898604.355   6466758.988   1420875.838
10 0 59465  39102.000000  0   -1658658.404   6278815.585   2291149.212
10 0 59465  39222.000000  0   -1394003.489   5976676.980   3121076.897
10 0 59465  39342.000000  0   -1111222.881   5565257.453   3896049.038
10 0 59465  39462.000000  0    -817115.612   5051512.047   4602434.100
10 0 59465  39582.000000  0    -518540.173   4444309.578   5227822.585
10 0 59465  39702.000000  0    -222259.304   3754268.668   5761242.157
10 0 59465  39822.000000  0      65207.511   2993564.570   6193346.963
10 0 59465  39942.000000  0     337723.075   2175705.990   6516576.186
10 0 59465  40062.000000  0     589660.022   1315290.510   6725280.230
10 0 59465  40182.000000  0     816014.491    427740.586   6815813.745
10 0 59465  40302.000000  0    1012503.683   -470972.773   6786594.523
10 0 59465  40422.000000  0    1175646.111  -1364616.461   6638130.707
10 0 59465  40542.000000  0    1302823.365  -2236988.241   6373012.842
10 0 59465  40662.000000  0    1392322.311  -3072210.765   5995872.139
10 0 59465  40782.000000  0    1443356.743  -3855022.928   5513303.948
10 0 59465  40902.000000  0    1456068.382  -4571061.343   4933756.819
10 0 59465  41022.000000  0    1431508.379  -5207128.058   4267391.117
10 0 59465  41142.000000  0    1371598.632  -5751442.804   3525906.858
10 0 59465  41262.000000  0    1279073.500  -6193871.279   2722339.280
10 0 59465  41382.000000  0    1157402.727  -6526122.257   1870828.908
10 0 59465  41502.000000  0    1010697.310  -6741912.266    986370.423
10 0 59465  41622.000000  0     843601.213  -6837092.167     84542.905
10 0 59465  41742.000000  0     661170.218  -6809732.180   -818773.961
10 0 59465  41862.000000  0     468741.094  -6660158.957  -1707690.454
10 0 59465  41982.000000  0     271796.923  -6390946.262  -2566594.200
10 0 59465  42102.000000  0      75830.859  -6006862.411  -3380429.764
10 0 59465  42222.000000  0    -113788.691  -5514775.260  -4134966.050
10 0 59465  42342.000000  0    -291948.117  -4923516.012  -4817045.068
10 0 59465  42462.000000  0    -453910.376  -4243707.830  -5414806.241
10 0 59465  42582.000000  0    -595425.943  -3487564.163  -5917884.908
10 0 59465  42702.000000  0    -712830.341  -2668660.934  -6317581.857
10 0 59465  42822.000000  0    -803126.874  -1801687.859  -6607002.390
10 0 59465  42942.000000  0    -864053.236   -902184.248  -6781163.816
10 0 59465  43062.000000  0    -894131.161     13736.536  -6837072.572
10 0 59465  43182.000000  0    -892697.794    929670.479  -6773769.061
10 0 59465  43302.000000  0    -859919.025   1829208.817  -6592341.850
10 0 59465  43422.000000  0    -796784.791   2696224.358  -6295910.919
10 0 59465  43542.000000  0    -705085.806   3515154.675  -5889581.166
10 0 59465  43662.000000  0    -587372.262   4271279.494  -5380363.961
10 0 59465  43782.000000  0    -446894.700   4950985.774  -4777067.147
10 0 59465  43902.000000  0    -287528.744   5542018.119  -4090154.305
10 0 59465  44022.000000  0    -113684.323   6033708.402  -3331572.763
10 0 59465  44142.000000  0      69799.153   6417178.945  -2514553.230
10 0 59465  44262.000000  0     257769.370   6685515.443  -1653383.525
10 0 59465  44382.000000  0     444886.903   6833904.569   -763159.113
10 0 59465  44502.000000  0     625757.574   6859731.478    140484.924
10 0 59465  44622.000000  0     795068.068   6762634.149   1041655.068
10 0 59465  44742.000000  0     947720.811   6544511.778   1924487.380
10 0 59465  44862.000000  0    1078963.337   6209487.610   2773435.129
10 0 59465  44982.000000  0    1184510.346   5763828.757   3573549.873
10 0 59465  45102.000000  0    1260655.748   5215822.547   4310751.374
10 0 59465  45222.000000  0    1304372.962   4575614.955   4972080.357
10 0 59465  45342.000000  0    1313395.901   3855009.464   5545928.600
10 0 59465  45462.000000  0    1286284.538   3067239.608   6022236.732
10 0 59465  45582.000000  0    1222471.447   2226719.382   6392666.360
10 0 59465  45702.000000  0    1122288.291   1348773.684   6650740.734
10 0 59465  45822.000000  0     986972.574    449354.847   6791951.778
10 0 59465  45942.000000  0     818654.309   -455247.277   6813832.943
10 0 59465  46062.000000  0     620322.614  -1348699.293   6716001.169
10 0 59465  46182.000000  0     395772.510  -2214919.383   6500163.618
10 0 59465  46302.000000  0     149532.573  -3038367.091   6170090.183
10 0 59465  46422.000000  0    -113224.750  -3804324.115   5731549.779
10 0 59465  46542.000000  0    -386788.061  -4499157.992   5192213.526
10 0 59465  46662.000000  0    -665025.956  -5110568.501   4561528.778
10 0 59465  46782.000000  0    -941519.463  -5627815.183   3850561.103
10 0 59465  46902.000000  0   -1209704.670  -6041916.426   3071802.204
10 0 59465  47022.000000  0   -1463021.575  -6345814.449   2238950.662
10 0 59465  47142.000000  0   -1695066.086  -6534505.173   1366669.629
10 0 59465  47262.000000  0   -1899742.785  -6605127.955    470322.737
10 0 59465  47382.000000  0   -2071411.488  -6557011.165   -434304.874
10 0 59465  47502.000000  0   -2205025.247  -6391673.860  -1331293.396
10 0 59465  47622.000000  0   -2296256.696  -6112783.493  -2204876.932
10 0 59465  47742.000000  0   -2341609.664  -5726070.985  -3039728.020
10 0 59465  47862.000000  0   -2338512.874  -5239204.720  -3821231.980
10 0 59465  47982.000000  0   -2285393.239  -4661627.323  -4535743.977
10 0 59465  48102.000000  0   -2181727.659  -4004361.456  -5170823.720
10 0 59465  48222.000000  0   -2028072.919  -3279790.289  -5715445.143
10 0 59465  48342.000000  0   -1826073.396  -2501417.408  -6160179.070
10 0 59465  48462.000000  0   -1578445.937  -1683610.354  -6497346.085
10 0 59465  48582.000000  0   -1288943.019   -841334.135  -6721137.121
10 0 59465  48702.000000  0    -962296.097     10120.116  -6827702.740
10 0 59465  48822.000000  0    -604138.994    855407.149  -6815211.500
10 0 59465  48942.000000  0    -220912.134   1679396.892  -6683877.742
10 0 59465  49062.000000  0     180249.405   2467437.924  -6435958.275
10 0 59465  49182.000000  0     591644.607   3205612.861  -6075719.922
10 0 59465  49302.000000  0    1005151.038   3880982.271  -5609373.819
10 0 59465  49422.000000  0    1412380.541   4481811.114  -5044978.005
10 0 59465  49542.000000  0    1804845.368   4997776.802  -4392310.510
99
